0 IRIDIUM 116
1 43072U 17083C   24025.92243749  .00000280  00000-0  92814-4 0  9996
2 43072  86.3998 326.9804 0002241  92.2021 267.9431 14.34216206319002
0 IRIDIUM 130
1 43073U 17083D   24025.89073030  .00000108  00000-0  31588-4 0  9997
2 43073  86.4009 327.1844 0002034  86.4436 273.6992 14.34218234318940
0 IRIDIUM 151
1 43074U 17083E   24025.79558899  .00000545  00000-0  18735-3 0  9991
2 43074  86.3999 327.0716 0002442  84.5050 275.6425 14.34221332318956
0 IRIDIUM 134
1 43075U 17083F   24025.90341271  .00000224  00000-0  73091-4 0  9990
2 43075  86.4002 327.0225 0001945  86.2856 273.8562 14.34217400318939
0 IRIDIUM 137
1 43076U 17083G   24025.91610214  .00000543  00000-0  18668-3 0  9990
2 43076  86.4002 327.0927 0002313  93.9396 266.2064 14.34219457319009
0 IRIDIUM 141
1 43077U 17083H   24025.90975100  .00000549  00000-0  18900-3 0  9993
2 43077  86.3998 326.9755 0002156  84.1109 276.0333 14.34216435319000
0 IRIDIUM 153
1 43078U 17083J   24025.79216801  .00000149  00000-0  46138-4 0  9998
2 43078  86.3977 295.4768 0002395  75.2171 284.9290 14.34216781320092
0 IRIDIUM 131
1 43079U 17083K   24025.89707260  .00000229  00000-0  74573-4 0  9997
2 43079  86.4003 327.1082 0002149  86.9236 273.2206 14.34218569318938
